MONITOR-3 (RS58S)       
1 57180U 23091Q   25001.11973679  .00022908  00000+0  12386-2 0  9999
2 57180  97.5868  58.2741 0016160 152.8948 207.3131 15.14571772 83394
MONITOR-4 (RS57S)       
1 57182U 23091S   24366.92160010  .00020445  00000+0  11063-2 0  9995
2 57182  97.5865  58.0374 0016219 154.0926 206.1121 15.14565820 83368
MONITOR-2 (RS39S)       
1 57184U 23091U   25001.10335359  .00014881  00000+0  87600-3 0  9992
2 57184  97.5872  57.8394 0013783 148.9099 211.2949 15.11646456 83360
SVYATOBOR 1 (RS60S)     
1 57187U 23091X   25001.09350856  .00020368  00000+0  10954-2 0  9996
2 57187  97.5876  58.9345 0012974 143.4035 216.8085 15.14827509 83439
VIZARD-METEO (RS38S)    
1 57189U 23091Z   25001.11021660  .00028346  00000+0  13993-2 0  9999
2 57189  97.5863  59.9308 0011675 139.0109 221.2004 15.17789453 83504
NANOZOND 1 (RS49S)      
1 57190U 23091AA  25001.15587409  .00048184  00000+0  19524-2 0  9991
2 57190  97.5829  61.6744 0009389 137.8654 222.3306 15.24455151 83636
POLYTECH-UNIVERSE 3 (R*)
1 57191U 23091AB  25001.10919251  .00014013  00000+0  82314-3 0  9993
2 57191  97.5838  57.4419 0018350 166.4385 193.7342 15.11675032 83354
UTMN 2 (RS27S)          
1 57203U 23091AP  24366.93432633  .00023797  00000+0  12132-2 0  9994
2 57203  97.5863  59.3925 0012189 140.2981 219.9147 15.16691279 83456
ARCCUBE 1 (RS25S)       
1 57205U 23091AR  25001.11345006  .00060746  00000+0  21863-2 0  9996
2 57205  97.5775  62.3019 0008834 138.3309 221.8605 15.28334545 83681
KUZGTU 1 (RS47S)        
1 57217U 23091AV  25001.14483438  .00024546  00000+0  13017-2 0  9994
2 57217  97.5851  58.4138 0015750 152.5417 207.6650 15.15249977 83413
SONATE-2                
1 59112U 24043Q   24366.58927002  .00029721  00000+0  10983-2 0  9998
2 59112  97.4962 129.7349 0012171 325.6266  34.4184 15.27610234 45840
MESAT1                  
1 60209U 24125G   24366.82857375  .00034743  00000+0  12693-2 0  9990
2 60209  97.2957 214.9372 0022799 352.6491   7.4411 15.27772219 27497
OOV-CUBE (TUBSAT-30)    
1 60240U 24128F   24366.75493607  .00008451  00000+0  70944-3 0  9995
2 60240  61.9981 276.8257 0031891  14.7576 345.4436 14.98608346 26193
COLIBRI-S (RS67S)       
1 61746U 24199M   25001.11778472  .00030479  00000+0  11713-2 0  9991
2 61746  97.3797 231.1604 0015442  35.0771 325.1482 15.26262952 55717
HORS 3 (RS81S)          
1 61753U 24199U   24366.92306706  .00033918  00000+0  13001-2 0  9991
2 61753  97.3770 230.9447 0014150  42.7746 317.4591 15.26343054 55684
HORS 4 (RS82S)          
1 61754U 24199V   24366.91715101  .00035890  00000+0  13640-2 0  9994
2 61754  97.3770 230.9518 0014352  42.7180 317.5171 15.26611604 55684
HORIZON (RS59S)         
1 61757U 24199Y   24366.90233138  .00043052  00000+0  16025-2 0  9990
2 61757  97.3798 230.9898 0015421  33.8025 326.4194 15.27243284 55685
SIT-2086                
1 61764U 24199AF  25001.09275538  .00036969  00000+0  13779-2 0  9997
2 61764  97.3773 231.1750 0012653  43.5600 316.6636 15.27272105 52556
MORDOVIA-IOT (RS50S)    
1 61765U 24199AG  24366.94281560  .00051213  00000+0  18428-2 0  9992
2 61765  97.3796 231.0882 0015181  30.9238 329.2892 15.28318214 52549
RUZAEVKA 390 (RS44S)    
1 61766U 24199AH  24366.87969235  .00047205  00000+0  17102-2 0  9991
2 61766  97.3795 231.0175 0014958  30.8827 329.3289 15.28118602 52537
HYPERVIEW 1G (RS66S)    
1 61772U 24199AP  24366.94191220  .00037985  00000+0  14612-2 0  9994
2 61772  97.3769 230.9184 0018389  44.4829 315.7883 15.26133893 52534
ALTAIR (RS65S)          
1 61779U 24199AW  24366.90425458  .00019091  00000+0  77111-3 0  9992
2 61779  97.3778 230.8202 0018636  45.8000 314.4765 15.24644622 55670
ASRTU-1 (AO-123)        
1 61781U 24199AY  24366.91129152  .00021195  00000+0  86101-3 0  9995
2 61781  97.3777 230.8117 0018810  45.7649 314.5129 15.24427321 52520
TUSUR GO (RS78S)        
1 61782U 24199AZ  24366.88921431  .00039282  00000+0  15260-2 0  9995
2 61782  97.3773 230.8387 0019680  44.1552 316.1253 15.25775977 52528
SAMSAT-IONOSPHERE (RS7*)
1 61784U 24199BB  24366.89385188  .00034040  00000+0  13366-2 0  9993
2 61784  97.3774 230.8319 0019419  44.8951 315.3853 15.25456622 55675
RTU MIREA 1 (RS51S)     
1 61785U 24199BC  24366.89248563  .00035180  00000+0  13779-2 0  9993
2 61785  97.3773 230.8340 0019323  44.3940 315.8843 15.25534348 52523
